<?xml version="1.0" encoding="UTF-8"?>
<ndm xmlns:xsi="http://www.w3.org/2001/XMLSchema-instance" xsi:noNamespaceSchemaLocation="https://sanaregistry.org/r/ndmxml_unqualified/ndmxml-2.0.0-master-2.0.xsd">
<omm id="CCSDS_OMM_VERS" version="2.0">
<header><CREATION_DATE/><ORIGINATOR/></header><body><segment><metadata><OBJECT_NAME>ORBCOMM FM115</OBJECT_NAME><OBJECT_ID>2015-081H</OBJECT_ID><CENTER_NAME>EARTH</CENTER_NAME><REF_FRAME>TEME</REF_FRAME><TIME_SYSTEM>UTC</TIME_SYSTEM><MEAN_ELEMENT_THEORY>SGP4</MEAN_ELEMENT_THEORY></metadata><data><meanElements><EPOCH>2025-01-25T09:15:21.922560</EPOCH><MEAN_MOTION>14.61999558</MEAN_MOTION><ECCENTRICITY>.0000175</ECCENTRICITY><INCLINATION>46.9993</INCLINATION><RA_OF_ASC_NODE>358.4976</RA_OF_ASC_NODE><ARG_OF_PERICENTER>345.4275</ARG_OF_PERICENTER><MEAN_ANOMALY>14.6607</MEAN_ANOMALY></meanElements><tleParameters><EPHEMERIS_TYPE>0</EPHEMERIS_TYPE><CLASSIFICATION_TYPE>U</CLASSIFICATION_TYPE><NORAD_CAT_ID>41186</NORAD_CAT_ID><ELEMENT_SET_NO>999</ELEMENT_SET_NO><REV_AT_EPOCH>48687</REV_AT_EPOCH><BSTAR>.56076E-3</BSTAR><MEAN_MOTION_DOT>.2666E-4</MEAN_MOTION_DOT><MEAN_MOTION_DDOT>0</MEAN_MOTION_DDOT></tleParameters></data></segment></body></omm>
<omm id="CCSDS_OMM_VERS" version="2.0">
<header><CREATION_DATE/><ORIGINATOR/></header><body><segment><metadata><OBJECT_NAME>ORBCOMM FM108</OBJECT_NAME><OBJECT_ID>2015-081J</OBJECT_ID><CENTER_NAME>EARTH</CENTER_NAME><REF_FRAME>TEME</REF_FRAME><TIME_SYSTEM>UTC</TIME_SYSTEM><MEAN_ELEMENT_THEORY>SGP4</MEAN_ELEMENT_THEORY></metadata><data><meanElements><EPOCH>2025-01-25T10:12:00.516672</EPOCH><MEAN_MOTION>14.57690113</MEAN_MOTION><ECCENTRICITY>.0002903</ECCENTRICITY><INCLINATION>47.0045</INCLINATION><RA_OF_ASC_NODE>60.9723</RA_OF_ASC_NODE><ARG_OF_PERICENTER>347.2242</ARG_OF_PERICENTER><MEAN_ANOMALY>12.8569</MEAN_ANOMALY></meanElements><tleParameters><EPHEMERIS_TYPE>0</EPHEMERIS_TYPE><CLASSIFICATION_TYPE>U</CLASSIFICATION_TYPE><NORAD_CAT_ID>41187</NORAD_CAT_ID><ELEMENT_SET_NO>999</ELEMENT_SET_NO><REV_AT_EPOCH>48596</REV_AT_EPOCH><BSTAR>.52928E-3</BSTAR><MEAN_MOTION_DOT>.227E-4</MEAN_MOTION_DOT><MEAN_MOTION_DDOT>0</MEAN_MOTION_DDOT></tleParameters></data></segment></body></omm>
<omm id="CCSDS_OMM_VERS" version="2.0">
<header><CREATION_DATE/><ORIGINATOR/></header><body><segment><metadata><OBJECT_NAME>ORBCOMM FM117</OBJECT_NAME><OBJECT_ID>2015-081K</OBJECT_ID><CENTER_NAME>EARTH</CENTER_NAME><REF_FRAME>TEME</REF_FRAME><TIME_SYSTEM>UTC</TIME_SYSTEM><MEAN_ELEMENT_THEORY>SGP4</MEAN_ELEMENT_THEORY></metadata><data><meanElements><EPOCH>2025-01-25T11:02:22.819776</EPOCH><MEAN_MOTION>14.57691297</MEAN_MOTION><ECCENTRICITY>.0003033</ECCENTRICITY><INCLINATION>47.0007</INCLINATION><RA_OF_ASC_NODE>59.6194</RA_OF_ASC_NODE><ARG_OF_PERICENTER>359.7164</ARG_OF_PERICENTER><MEAN_ANOMALY>0.3719</MEAN_ANOMALY></meanElements><tleParameters><EPHEMERIS_TYPE>0</EPHEMERIS_TYPE><CLASSIFICATION_TYPE>U</CLASSIFICATION_TYPE><NORAD_CAT_ID>41188</NORAD_CAT_ID><ELEMENT_SET_NO>999</ELEMENT_SET_NO><REV_AT_EPOCH>48601</REV_AT_EPOCH><BSTAR>.60968E-3</BSTAR><MEAN_MOTION_DOT>.2641E-4</MEAN_MOTION_DOT><MEAN_MOTION_DDOT>0</MEAN_MOTION_DDOT></tleParameters></data></segment></body></omm>
<omm id="CCSDS_OMM_VERS" version="2.0">
<header><CREATION_DATE/><ORIGINATOR/></header><body><segment><metadata><OBJECT_NAME>ORBCOMM FM116</OBJECT_NAME><OBJECT_ID>2015-081L</OBJECT_ID><CENTER_NAME>EARTH</CENTER_NAME><REF_FRAME>TEME</REF_FRAME><TIME_SYSTEM>UTC</TIME_SYSTEM><MEAN_ELEMENT_THEORY>SGP4</MEAN_ELEMENT_THEORY></metadata><data><meanElements><EPOCH>2025-01-25T12:27:11.282112</EPOCH><MEAN_MOTION>14.57695188</MEAN_MOTION><ECCENTRICITY>.0001235</ECCENTRICITY><INCLINATION>47.0001</INCLINATION><RA_OF_ASC_NODE>149.1924</RA_OF_ASC_NODE><ARG_OF_PERICENTER>157.9242</ARG_OF_PERICENTER><MEAN_ANOMALY>202.1697</MEAN_ANOMALY></meanElements><tleParameters><EPHEMERIS_TYPE>0</EPHEMERIS_TYPE><CLASSIFICATION_TYPE>U</CLASSIFICATION_TYPE><NORAD_CAT_ID>41189</NORAD_CAT_ID><ELEMENT_SET_NO>999</ELEMENT_SET_NO><REV_AT_EPOCH>48483</REV_AT_EPOCH><BSTAR>.53423E-3</BSTAR><MEAN_MOTION_DOT>.2293E-4</MEAN_MOTION_DOT><MEAN_MOTION_DDOT>0</MEAN_MOTION_DDOT></tleParameters></data></segment></body></omm>
</ndm>
