ORBCOMM FM115           
1 41186U 15081H   25025.38567040  .00002666  00000+0  56076-3 0  9998
2 41186  46.9993 358.4976 0000175 345.4275  14.6607 14.61999558486871
ORBCOMM FM108           
1 41187U 15081J   25025.42500598  .00002270  00000+0  52928-3 0  9992
2 41187  47.0045  60.9723 0002903 347.2242  12.8569 14.57690113486048
ORBCOMM FM117           
1 41188U 15081K   25025.45998634  .00002641  00000+0  60968-3 0  9993
2 41188  47.0007  59.6194 0003033 359.7164   0.3719 14.57691297486065
ORBCOMM FM116           
1 41189U 15081L   25025.51888058  .00002293  00000+0  53423-3 0  9990
2 41189  47.0001 149.1924 0001235 157.9242 202.1697 14.57695188484836
